[{"OBJECT_NAME":"OBJECT AL","OBJECT_ID":"2023-085AL","EPOCH":"2026-03-09T22:26:04.970400","MEAN_MOTION":15.31857284,"ECCENTRICITY":0.000802,"INCLINATION":97.4839,"RA_OF_ASC_NODE":180.0127,"ARG_OF_PERICENTER":78.7242,"MEAN_ANOMALY":281.49,"EPHEMERIS_TYPE":0,"CLASSIFICATION_TYPE":"U","NORAD_CAT_ID":57038,"ELEMENT_SET_NO":999,"REV_AT_EPOCH":15154,"BSTAR":0.0006591637,"MEAN_MOTION_DOT":0.00020246,"MEAN_MOTION_DDOT":0},{"OBJECT_NAME":"STARLINK-32037","OBJECT_ID":"2024-132F","EPOCH":"2026-03-09T09:26:05.274240","MEAN_MOTION":15.30186883,"ECCENTRICITY":0.0001143,"INCLINATION":53.1605,"RA_OF_ASC_NODE":53.9022,"ARG_OF_PERICENTER":97.8508,"MEAN_ANOMALY":262.2622,"EPHEMERIS_TYPE":0,"CLASSIFICATION_TYPE":"U","NORAD_CAT_ID":60283,"ELEMENT_SET_NO":999,"REV_AT_EPOCH":9151,"BSTAR":1.4078825e-5,"MEAN_MOTION_DOT":5.8e-7,"MEAN_MOTION_DDOT":0}]
